STARLINK-31460          
1 59008U 24036L   25230.57607488 -.00000162  00000+0  66556-5 0  9996
2 59008  53.1592 301.7176 0000909 108.8969 251.2130 15.30184960 84220
STARLINK-31488          
1 59009U 24036M   25230.47698433  .00001373  00000+0  58499-4 0  9996
2 59009  53.1603 301.8039 0001120  85.3860 274.7268 15.30190394 84217
STARLINK-31528          
1 59010U 24036N   25230.46655240  .00001326  00000+0  56946-4 0  9999
2 59010  53.1618 302.4486 0001407  93.1640 266.9522 15.30175424 84201
STARLINK-31491          
1 59011U 24036P   25230.46763791 -.00003649  00000+0 -11128-3 0  9995
2 59011  53.1603 302.4572 0001362  78.7876 281.3278 15.30156882 84208
STARLINK-31465          
1 59012U 24036Q   25230.46232812  .00001432  00000+0  60482-4 0  9995
2 59012  53.1595 302.4243 0001279  81.1707 278.9439 15.30189276 84206
STARLINK-31389          
1 59013U 24036R   25230.46549453 -.00000255  00000+0  35200-5 0  9992
2 59013  53.1608 302.4416 0001462  75.0936 285.0226 15.30184150 84214
STARLINK-31454          
1 59014U 24036S   25230.52447616 -.00000057  00000+0  10217-4 0  9998
2 59014  53.1602 302.0983 0001234  88.9158 271.1984 15.30185564 84228
STARLINK-31521          
1 59015U 24036T   25230.52341984  .00000947  00000+0  44126-4 0  9993
2 59015  53.1613 302.0908 0001351  93.0548 267.0607 15.30185976 84210
STARLINK-31526          
1 59016U 24036U   25230.52336157 -.00000503  00000+0 -48593-5 0  9993
2 59016  53.1598 276.4775 0001145  80.1839 279.9291 15.30185850 84593
STARLINK-31406          
1 59017U 24036V   25230.47401041  .00000279  00000+0  16945-4 0  9996
2 59017  53.1590 291.8512 0001088  90.2106 269.9024 15.39613913 84353
STARLINK-31527          
1 59018U 24036W   25230.51390223  .00002761  00000+0  10530-3 0  9992
2 59018  53.1605 302.0392 0001100  96.1315 263.9811 15.30205880 84218
STARLINK-31436          
1 59019U 24036X   25230.46865962  .00000968  00000+0  44814-4 0  9994
2 59019  53.1603 302.4599 0001184  81.4405 278.6730 15.30188382 84208
STARLINK-30996          
1 59023U 24038A   25230.58335648  .00035475  00000+0  12932-2 0  9992
2 59023  43.0005  94.0872 0001339 269.0386 151.6675 15.27561333  5667
STARLINK-31006          
1 59024U 24038B   25230.55312114  .00000216  00000+0  17360-4 0  9990
2 59024  42.9954  43.8075 0000792  97.3387 262.7555 15.27576546 84278
STARLINK-31178          
1 59025U 24038C   25229.98240624  .00010101  00000+0  39509-3 0  9994
2 59025  42.9998  97.4627 0001215 271.6614  88.4098 15.25940344 83493
STARLINK-31227          
1 59026U 24038D   25230.03896704  .00003861  00000+0  14973-3 0  9992
2 59026  43.0011  97.0318 0001445 272.8871  87.1816 15.27583826 83616
STARLINK-30863          
1 59027U 24038E   25230.35254638  .00000526  00000+0  29940-4 0  9998
2 59027  43.0029  95.0726 0000679 285.6552  74.4224 15.25906430 83556
