[{"OBJECT_NAME":"STARLINK-31460","OBJECT_ID":"2024-036L","EPOCH":"2025-08-18T13:49:32.869632","MEAN_MOTION":15.3018496,"ECCENTRICITY":9.09e-5,"INCLINATION":53.1592,"RA_OF_ASC_NODE":301.7176,"ARG_OF_PERICENTER":108.8969,"MEAN_ANOMALY":251.213,"EPHEMERIS_TYPE":0,"CLASSIFICATION_TYPE":"U","NORAD_CAT_ID":59008,"ELEMENT_SET_NO":999,"REV_AT_EPOCH":8422,"BSTAR":6.6556e-6,"MEAN_MOTION_DOT":-1.62e-6,"MEAN_MOTION_DDOT":0},{"OBJECT_NAME":"STARLINK-31488","OBJECT_ID":"2024-036M","EPOCH":"2025-08-18T11:26:51.446112","MEAN_MOTION":15.30190394,"ECCENTRICITY":0.000112,"INCLINATION":53.1603,"RA_OF_ASC_NODE":301.8039,"ARG_OF_PERICENTER":85.386,"MEAN_ANOMALY":274.7268,"EPHEMERIS_TYPE":0,"CLASSIFICATION_TYPE":"U","NORAD_CAT_ID":59009,"ELEMENT_SET_NO":999,"REV_AT_EPOCH":8421,"BSTAR":5.8499e-5,"MEAN_MOTION_DOT":1.373e-5,"MEAN_MOTION_DDOT":0},{"OBJECT_NAME":"STARLINK-31528","OBJECT_ID":"2024-036N","EPOCH":"2025-08-18T11:11:50.127360","MEAN_MOTION":15.30175424,"ECCENTRICITY":0.0001407,"INCLINATION":53.1618,"RA_OF_ASC_NODE":302.4486,"ARG_OF_PERICENTER":93.164,"MEAN_ANOMALY":266.9522,"EPHEMERIS_TYPE":0,"CLASSIFICATION_TYPE":"U","NORAD_CAT_ID":59010,"ELEMENT_SET_NO":999,"REV_AT_EPOCH":8420,"BSTAR":5.6946e-5,"MEAN_MOTION_DOT":1.326e-5,"MEAN_MOTION_DDOT":0},{"OBJECT_NAME":"STARLINK-31491","OBJECT_ID":"2024-036P","EPOCH":"2025-08-18T11:13:23.915424","MEAN_MOTION":15.30156882,"ECCENTRICITY":0.0001362,"INCLINATION":53.1603,"RA_OF_ASC_NODE":302.4572,"ARG_OF_PERICENTER":78.7876,"MEAN_ANOMALY":281.3278,"EPHEMERIS_TYPE":0,"CLASSIFICATION_TYPE":"U","NORAD_CAT_ID":59011,"ELEMENT_SET_NO":999,"REV_AT_EPOCH":8420,"BSTAR":-0.00011128,"MEAN_MOTION_DOT":-3.649e-5,"MEAN_MOTION_DDOT":0},{"OBJECT_NAME":"STARLINK-31465","OBJECT_ID":"2024-036Q","EPOCH":"2025-08-18T11:05:45.149568","MEAN_MOTION":15.30189276,"ECCENTRICITY":0.0001279,"INCLINATION":53.1595,"RA_OF_ASC_NODE":302.4243,"ARG_OF_PERICENTER":81.1707,"MEAN_ANOMALY":278.9439,"EPHEMERIS_TYPE":0,"CLASSIFICATION_TYPE":"U","NORAD_CAT_ID":59012,"ELEMENT_SET_NO":999,"REV_AT_EPOCH":8420,"BSTAR":6.0482e-5,"MEAN_MOTION_DOT":1.432e-5,"MEAN_MOTION_DDOT":0},{"OBJECT_NAME":"STARLINK-31389","OBJECT_ID":"2024-036R","EPOCH":"2025-08-18T11:10:18.727392","MEAN_MOTION":15.3018415,"ECCENTRICITY":0.0001462,"INCLINATION":53.1608,"RA_OF_ASC_NODE":302.4416,"ARG_OF_PERICENTER":75.0936,"MEAN_ANOMALY":285.0226,"EPHEMERIS_TYPE":0,"CLASSIFICATION_TYPE":"U","NORAD_CAT_ID":59013,"ELEMENT_SET_NO":999,"REV_AT_EPOCH":8421,"BSTAR":3.52e-6,"MEAN_MOTION_DOT":-2.55e-6,"MEAN_MOTION_DDOT":0},{"OBJECT_NAME":"STARLINK-31454","OBJECT_ID":"2024-036S","EPOCH":"2025-08-18T12:35:14.740224","MEAN_MOTION":15.30185564,"ECCENTRICITY":0.0001234,"INCLINATION":53.1602,"RA_OF_ASC_NODE":302.0983,"ARG_OF_PERICENTER":88.9158,"MEAN_ANOMALY":271.1984,"EPHEMERIS_TYPE":0,"CLASSIFICATION_TYPE":"U","NORAD_CAT_ID":59014,"ELEMENT_SET_NO":999,"REV_AT_EPOCH":8422,"BSTAR":1.0217e-5,"MEAN_MOTION_DOT":-5.7e-7,"MEAN_MOTION_DDOT":0},{"OBJECT_NAME":"STARLINK-31521","OBJECT_ID":"2024-036T","EPOCH":"2025-08-18T12:33:43.474176","MEAN_MOTION":15.30185976,"ECCENTRICITY":0.0001351,"INCLINATION":53.1613,"RA_OF_ASC_NODE":302.0908,"ARG_OF_PERICENTER":93.0548,"MEAN_ANOMALY":267.0607,"EPHEMERIS_TYPE":0,"CLASSIFICATION_TYPE":"U","NORAD_CAT_ID":59015,"ELEMENT_SET_NO":999,"REV_AT_EPOCH":8421,"BSTAR":4.4126e-5,"MEAN_MOTION_DOT":9.47e-6,"MEAN_MOTION_DDOT":0},{"OBJECT_NAME":"STARLINK-31526","OBJECT_ID":"2024-036U","EPOCH":"2025-08-18T12:33:38.439648","MEAN_MOTION":15.3018585,"ECCENTRICITY":0.0001145,"INCLINATION":53.1598,"RA_OF_ASC_NODE":276.4775,"ARG_OF_PERICENTER":80.1839,"MEAN_ANOMALY":279.9291,"EPHEMERIS_TYPE":0,"CLASSIFICATION_TYPE":"U","NORAD_CAT_ID":59016,"ELEMENT_SET_NO":999,"REV_AT_EPOCH":8459,"BSTAR":-4.8593e-6,"MEAN_MOTION_DOT":-5.03e-6,"MEAN_MOTION_DDOT":0},{"OBJECT_NAME":"STARLINK-31406","OBJECT_ID":"2024-036V","EPOCH":"2025-08-18T11:22:34.499424","MEAN_MOTION":15.39613913,"ECCENTRICITY":0.0001088,"INCLINATION":53.159,"RA_OF_ASC_NODE":291.8512,"ARG_OF_PERICENTER":90.2106,"MEAN_ANOMALY":269.9024,"EPHEMERIS_TYPE":0,"CLASSIFICATION_TYPE":"U","NORAD_CAT_ID":59017,"ELEMENT_SET_NO":999,"REV_AT_EPOCH":8435,"BSTAR":1.6945e-5,"MEAN_MOTION_DOT":2.79e-6,"MEAN_MOTION_DDOT":0},{"OBJECT_NAME":"STARLINK-31527","OBJECT_ID":"2024-036W","EPOCH":"2025-08-18T12:20:01.152672","MEAN_MOTION":15.3020588,"ECCENTRICITY":0.00011,"INCLINATION":53.1605,"RA_OF_ASC_NODE":302.0392,"ARG_OF_PERICENTER":96.1315,"MEAN_ANOMALY":263.9811,"EPHEMERIS_TYPE":0,"CLASSIFICATION_TYPE":"U","NORAD_CAT_ID":59018,"ELEMENT_SET_NO":999,"REV_AT_EPOCH":8421,"BSTAR":0.0001053,"MEAN_MOTION_DOT":2.761e-5,"MEAN_MOTION_DDOT":0},{"OBJECT_NAME":"STARLINK-31436","OBJECT_ID":"2024-036X","EPOCH":"2025-08-18T11:14:52.191168","MEAN_MOTION":15.30188382,"ECCENTRICITY":0.0001184,"INCLINATION":53.1603,"RA_OF_ASC_NODE":302.4599,"ARG_OF_PERICENTER":81.4405,"MEAN_ANOMALY":278.673,"EPHEMERIS_TYPE":0,"CLASSIFICATION_TYPE":"U","NORAD_CAT_ID":59019,"ELEMENT_SET_NO":999,"REV_AT_EPOCH":8420,"BSTAR":4.4814e-5,"MEAN_MOTION_DOT":9.68e-6,"MEAN_MOTION_DDOT":0},{"OBJECT_NAME":"STARLINK-30996","OBJECT_ID":"2024-038A","EPOCH":"2025-08-18T14:00:01.999872","MEAN_MOTION":15.27561333,"ECCENTRICITY":0.0001339,"INCLINATION":43.0005,"RA_OF_ASC_NODE":94.0872,"ARG_OF_PERICENTER":269.0386,"MEAN_ANOMALY":151.6675,"EPHEMERIS_TYPE":0,"CLASSIFICATION_TYPE":"U","NORAD_CAT_ID":59023,"ELEMENT_SET_NO":999,"REV_AT_EPOCH":566,"BSTAR":0.0012932,"MEAN_MOTION_DOT":0.00035475,"MEAN_MOTION_DDOT":0},{"OBJECT_NAME":"STARLINK-31006","OBJECT_ID":"2024-038B","EPOCH":"2025-08-18T13:16:29.666496","MEAN_MOTION":15.27576546,"ECCENTRICITY":7.92e-5,"INCLINATION":42.9954,"RA_OF_ASC_NODE":43.8075,"ARG_OF_PERICENTER":97.3387,"MEAN_ANOMALY":262.7555,"EPHEMERIS_TYPE":0,"CLASSIFICATION_TYPE":"U","NORAD_CAT_ID":59024,"ELEMENT_SET_NO":999,"REV_AT_EPOCH":8427,"BSTAR":1.736e-5,"MEAN_MOTION_DOT":2.16e-6,"MEAN_MOTION_DDOT":0},{"OBJECT_NAME":"STARLINK-31178","OBJECT_ID":"2024-038C","EPOCH":"2025-08-17T23:34:39.899136","MEAN_MOTION":15.25940344,"ECCENTRICITY":0.0001215,"INCLINATION":42.9998,"RA_OF_ASC_NODE":97.4627,"ARG_OF_PERICENTER":271.6614,"MEAN_ANOMALY":88.4098,"EPHEMERIS_TYPE":0,"CLASSIFICATION_TYPE":"U","NORAD_CAT_ID":59025,"ELEMENT_SET_NO":999,"REV_AT_EPOCH":8349,"BSTAR":0.00039509,"MEAN_MOTION_DOT":0.00010101,"MEAN_MOTION_DDOT":0},{"OBJECT_NAME":"STARLINK-31227","OBJECT_ID":"2024-038D","EPOCH":"2025-08-18T00:56:06.752256","MEAN_MOTION":15.27583826,"ECCENTRICITY":0.0001445,"INCLINATION":43.0011,"RA_OF_ASC_NODE":97.0318,"ARG_OF_PERICENTER":272.8871,"MEAN_ANOMALY":87.1816,"EPHEMERIS_TYPE":0,"CLASSIFICATION_TYPE":"U","NORAD_CAT_ID":59026,"ELEMENT_SET_NO":999,"REV_AT_EPOCH":8361,"BSTAR":0.00014973,"MEAN_MOTION_DOT":3.861e-5,"MEAN_MOTION_DDOT":0},{"OBJECT_NAME":"STARLINK-30863","OBJECT_ID":"2024-038E","EPOCH":"2025-08-18T08:27:40.007232","MEAN_MOTION":15.2590643,"ECCENTRICITY":6.79e-5,"INCLINATION":43.0029,"RA_OF_ASC_NODE":95.0726,"ARG_OF_PERICENTER":285.6552,"MEAN_ANOMALY":74.4224,"EPHEMERIS_TYPE":0,"CLASSIFICATION_TYPE":"U","NORAD_CAT_ID":59027,"ELEMENT_SET_NO":999,"REV_AT_EPOCH":8355,"BSTAR":2.994e-5,"MEAN_MOTION_DOT":5.26e-6,"MEAN_MOTION_DDOT":0}]
